KUIPER-00572            
1 69272U 26118F   26197.25002315 -.01761472  00000+0 -80224-1 0  9993
2 69272  51.8746 273.3012 0004832 278.9782 131.1528 15.23754511  5478
KUIPER-00581            
1 69273U 26118G   26197.25002315 -.00034904  00000+0 -27622-2 0  9990
2 69273  51.8903 275.3992 0004811 306.6413 103.8463 15.00077929  5795
KUIPER-00584            
1 69274U 26118H   26197.25002315 -.00043674  00000+0 -46327-2 0  9998
2 69274  51.8967 277.4926 0009209 312.6524  90.2954 14.88681472  5728
KUIPER-00587            
1 69275U 26118J   26197.20538003 -.00161726  00000+0 -46590-2 0  9993
2 69275  51.8633 273.1279 0005575 295.3885  64.6524 15.35788187  8446
KUIPER-00590            
1 69276U 26118K   26197.25002315 -.00016818  00000+0 -99922-3 0  9990
2 69276  51.8830 273.9211 0000819 352.5860 172.6900 15.10292760  5349
KUIPER-00592            
1 69277U 26118L   26197.25002315 -.00064187  00000+0 -33020-2 0  9999
2 69277  51.8750 273.6331 0001519 109.6585 203.8357 15.16116277  4654
KUIPER-00593            
1 69278U 26118M   26197.25002315  .00010357  00000+0  27606-3 0  9992
2 69278  51.8705 272.4296 0002887 280.8058 217.4647 15.38742132  4650
KUIPER-00594            
1 69279U 26118N   26197.22611652  .00016653  00000+0  45585-3 0  9991
2 69279  51.8703 272.5565 0002250  71.9015 288.2217 15.37456437  8455
KUIPER-00595            
1 69280U 26118P   26196.57873573  .00012055  00000+0  33298-3 0  9992
2 69280  51.8703 275.7170 0001284   1.8279 358.2712 15.37465777  8381
KUIPER-00596            
1 69281U 26118Q   26197.25002315 -.00058534  00000+0 -62241-2 0  9990
2 69281  51.8963 277.3510 0014142 322.1512 180.8322 14.88679009  5273
KUIPER-00597            
1 69282U 26118R   26196.47541517  .00012837  00000+0  35014-3 0  9999
2 69282  51.8658 276.4965 0006057 287.5700  72.4625 15.37785711  8333
KUIPER-00599            
1 69283U 26118S   26197.25002315  .00011232  00000+0  34063-3 0  9996
2 69283  51.8696 272.7278 0005255 288.3108  68.4987 15.34592607  3598
KUIPER-00600            
1 69284U 26118T   26197.20078698  .00015207  00000+0  41692-3 0  9991
2 69284  51.8640 273.1025 0007850 293.1227  66.8932 15.37460800  8445
KUIPER-00601            
1 69285U 26118U   26197.25002315 -.00072693  00000+0 -39058-2 0  9996
2 69285  51.8836 273.7947 0004018 282.3527 262.9574 15.14640532  4206
KUIPER-00602            
1 69286U 26118V   26197.25002315  .00009884  00000+0  27695-3 0  9992
2 69286  51.8695 272.4238 0002478 291.8034 208.0943 15.37242233  4836
KUIPER-00603            
1 69287U 26118W   26197.25002315 -.01142035  00000+0 -37433-1 0  9991
2 69287  51.8688 272.6437 0003601 285.2907  94.4823 15.34035518  5778
