{"fetched_at":"2026-07-16T17:46:03.568Z","source":"https://celestrak.org/NORAD/elements/gp.php?GROUP=kuiper&FORMAT=JSON","constellation":"kuiper","records":[{"OBJECT_NAME":"KUIPER-00572","OBJECT_ID":"2026-118F","EPOCH":"2026-07-16T06:00:02.000160","CLASSIFICATION_TYPE":"U","MEAN_MOTION":15.23754511,"ECCENTRICITY":0.00048327,"INCLINATION":51.8746,"RA_OF_ASC_NODE":273.3012,"ARG_OF_PERICENTER":278.9782,"MEAN_ANOMALY":131.1528,"EPHEMERIS_TYPE":0,"NORAD_CAT_ID":69272,"ELEMENT_SET_NO":999,"REV_AT_EPOCH":547,"BSTAR":-0.080223922,"MEAN_MOTION_DOT":-0.01761472,"MEAN_MOTION_DDOT":0},{"OBJECT_NAME":"KUIPER-00581","OBJECT_ID":"2026-118G","EPOCH":"2026-07-16T06:00:02.000160","CLASSIFICATION_TYPE":"U","MEAN_MOTION":15.00077929,"ECCENTRICITY":0.00048113,"INCLINATION":51.8903,"RA_OF_ASC_NODE":275.3992,"ARG_OF_PERICENTER":306.6413,"MEAN_ANOMALY":103.8463,"EPHEMERIS_TYPE":0,"NORAD_CAT_ID":69273,"ELEMENT_SET_NO":999,"REV_AT_EPOCH":579,"BSTAR":-0.0027621706,"MEAN_MOTION_DOT":-0.00034904,"MEAN_MOTION_DDOT":0},{"OBJECT_NAME":"KUIPER-00584","OBJECT_ID":"2026-118H","EPOCH":"2026-07-16T06:00:02.000160","CLASSIFICATION_TYPE":"U","MEAN_MOTION":14.88681472,"ECCENTRICITY":0.00092095,"INCLINATION":51.8967,"RA_OF_ASC_NODE":277.4926,"ARG_OF_PERICENTER":312.6524,"MEAN_ANOMALY":90.2954,"EPHEMERIS_TYPE":0,"NORAD_CAT_ID":69274,"ELEMENT_SET_NO":999,"REV_AT_EPOCH":572,"BSTAR":-0.0046327098,"MEAN_MOTION_DOT":-0.00043674,"MEAN_MOTION_DDOT":0},{"OBJECT_NAME":"KUIPER-00587","OBJECT_ID":"2026-118J","EPOCH":"2026-07-16T04:55:44.834592","CLASSIFICATION_TYPE":"U","MEAN_MOTION":15.35788187,"ECCENTRICITY":0.00055754,"INCLINATION":51.8633,"RA_OF_ASC_NODE":273.1279,"ARG_OF_PERICENTER":295.3885,"MEAN_ANOMALY":64.6524,"EPHEMERIS_TYPE":0,"NORAD_CAT_ID":69275,"ELEMENT_SET_NO":999,"REV_AT_EPOCH":844,"BSTAR":-0.0046589622,"MEAN_MOTION_DOT":-0.00161726,"MEAN_MOTION_DDOT":0},{"OBJECT_NAME":"KUIPER-00590","OBJECT_ID":"2026-118K","EPOCH":"2026-07-16T06:00:02.000160","CLASSIFICATION_TYPE":"U","MEAN_MOTION":15.1029276,"ECCENTRICITY":0.00008197,"INCLINATION":51.883,"RA_OF_ASC_NODE":273.9211,"ARG_OF_PERICENTER":352.586,"MEAN_ANOMALY":172.69,"EPHEMERIS_TYPE":0,"NORAD_CAT_ID":69276,"ELEMENT_SET_NO":999,"REV_AT_EPOCH":534,"BSTAR":-0.000999218,"MEAN_MOTION_DOT":-0.00016818,"MEAN_MOTION_DDOT":0},{"OBJECT_NAME":"KUIPER-00592","OBJECT_ID":"2026-118L","EPOCH":"2026-07-16T06:00:02.000160","CLASSIFICATION_TYPE":"U","MEAN_MOTION":15.16116277,"ECCENTRICITY":0.00015198,"INCLINATION":51.875,"RA_OF_ASC_NODE":273.6331,"ARG_OF_PERICENTER":109.6585,"MEAN_ANOMALY":203.8357,"EPHEMERIS_TYPE":0,"NORAD_CAT_ID":69277,"ELEMENT_SET_NO":999,"REV_AT_EPOCH":465,"BSTAR":-0.0033020197,"MEAN_MOTION_DOT":-0.00064187,"MEAN_MOTION_DDOT":0},{"OBJECT_NAME":"KUIPER-00593","OBJECT_ID":"2026-118M","EPOCH":"2026-07-16T06:00:02.000160","CLASSIFICATION_TYPE":"U","MEAN_MOTION":15.38742132,"ECCENTRICITY":0.00028877,"INCLINATION":51.8705,"RA_OF_ASC_NODE":272.4296,"ARG_OF_PERICENTER":280.8058,"MEAN_ANOMALY":217.4647,"EPHEMERIS_TYPE":0,"NORAD_CAT_ID":69278,"ELEMENT_SET_NO":999,"REV_AT_EPOCH":465,"BSTAR":0.0002760568,"MEAN_MOTION_DOT":0.00010357,"MEAN_MOTION_DDOT":0},{"OBJECT_NAME":"KUIPER-00594","OBJECT_ID":"2026-118N","EPOCH":"2026-07-16T05:25:36.467328","CLASSIFICATION_TYPE":"U","MEAN_MOTION":15.37456437,"ECCENTRICITY":0.00022508,"INCLINATION":51.8703,"RA_OF_ASC_NODE":272.5565,"ARG_OF_PERICENTER":71.9015,"MEAN_ANOMALY":288.2217,"EPHEMERIS_TYPE":0,"NORAD_CAT_ID":69279,"ELEMENT_SET_NO":999,"REV_AT_EPOCH":845,"BSTAR":0.00045584792,"MEAN_MOTION_DOT":0.00016653,"MEAN_MOTION_DDOT":0},{"OBJECT_NAME":"KUIPER-00595","OBJECT_ID":"2026-118P","EPOCH":"2026-07-15T13:53:22.767072","CLASSIFICATION_TYPE":"U","MEAN_MOTION":15.37465777,"ECCENTRICITY":0.0001284,"INCLINATION":51.8703,"RA_OF_ASC_NODE":275.717,"ARG_OF_PERICENTER":1.8279,"MEAN_ANOMALY":358.2712,"EPHEMERIS_TYPE":0,"NORAD_CAT_ID":69280,"ELEMENT_SET_NO":999,"REV_AT_EPOCH":838,"BSTAR":0.00033298,"MEAN_MOTION_DOT":0.00012055,"MEAN_MOTION_DDOT":0},{"OBJECT_NAME":"KUIPER-00596","OBJECT_ID":"2026-118Q","EPOCH":"2026-07-16T06:00:02.000160","CLASSIFICATION_TYPE":"U","MEAN_MOTION":14.88679009,"ECCENTRICITY":0.00141421,"INCLINATION":51.8963,"RA_OF_ASC_NODE":277.351,"ARG_OF_PERICENTER":322.1512,"MEAN_ANOMALY":180.8322,"EPHEMERIS_TYPE":0,"NORAD_CAT_ID":69281,"ELEMENT_SET_NO":999,"REV_AT_EPOCH":527,"BSTAR":-0.0062241382,"MEAN_MOTION_DOT":-0.00058534,"MEAN_MOTION_DDOT":0},{"OBJECT_NAME":"KUIPER-00597","OBJECT_ID":"2026-118R","EPOCH":"2026-07-15T11:24:35.870688","CLASSIFICATION_TYPE":"U","MEAN_MOTION":15.37785711,"ECCENTRICITY":0.00060572,"INCLINATION":51.8658,"RA_OF_ASC_NODE":276.4965,"ARG_OF_PERICENTER":287.57,"MEAN_ANOMALY":72.4625,"EPHEMERIS_TYPE":0,"NORAD_CAT_ID":69282,"ELEMENT_SET_NO":999,"REV_AT_EPOCH":833,"BSTAR":0.00035014361,"MEAN_MOTION_DOT":0.00012837,"MEAN_MOTION_DDOT":0},{"OBJECT_NAME":"KUIPER-00599","OBJECT_ID":"2026-118S","EPOCH":"2026-07-16T06:00:02.000160","CLASSIFICATION_TYPE":"U","MEAN_MOTION":15.34592607,"ECCENTRICITY":0.00052552,"INCLINATION":51.8696,"RA_OF_ASC_NODE":272.7278,"ARG_OF_PERICENTER":288.3108,"MEAN_ANOMALY":68.4987,"EPHEMERIS_TYPE":0,"NORAD_CAT_ID":69283,"ELEMENT_SET_NO":999,"REV_AT_EPOCH":359,"BSTAR":0.00034063211,"MEAN_MOTION_DOT":0.00011232,"MEAN_MOTION_DDOT":0},{"OBJECT_NAME":"KUIPER-00600","OBJECT_ID":"2026-118T","EPOCH":"2026-07-16T04:49:07.995072","CLASSIFICATION_TYPE":"U","MEAN_MOTION":15.374608,"ECCENTRICITY":0.00078509,"INCLINATION":51.864,"RA_OF_ASC_NODE":273.1025,"ARG_OF_PERICENTER":293.1227,"MEAN_ANOMALY":66.8932,"EPHEMERIS_TYPE":0,"NORAD_CAT_ID":69284,"ELEMENT_SET_NO":999,"REV_AT_EPOCH":844,"BSTAR":0.000416916,"MEAN_MOTION_DOT":0.00015207,"MEAN_MOTION_DDOT":0},{"OBJECT_NAME":"KUIPER-00601","OBJECT_ID":"2026-118U","EPOCH":"2026-07-16T06:00:02.000160","CLASSIFICATION_TYPE":"U","MEAN_MOTION":15.14640532,"ECCENTRICITY":0.00040186,"INCLINATION":51.8836,"RA_OF_ASC_NODE":273.7947,"ARG_OF_PERICENTER":282.3527,"MEAN_ANOMALY":262.9574,"EPHEMERIS_TYPE":0,"NORAD_CAT_ID":69285,"ELEMENT_SET_NO":999,"REV_AT_EPOCH":420,"BSTAR":-0.0039057648,"MEAN_MOTION_DOT":-0.00072693,"MEAN_MOTION_DDOT":0},{"OBJECT_NAME":"KUIPER-00602","OBJECT_ID":"2026-118V","EPOCH":"2026-07-16T06:00:02.000160","CLASSIFICATION_TYPE":"U","MEAN_MOTION":15.37242233,"ECCENTRICITY":0.00024784,"INCLINATION":51.8695,"RA_OF_ASC_NODE":272.4238,"ARG_OF_PERICENTER":291.8034,"MEAN_ANOMALY":208.0943,"EPHEMERIS_TYPE":0,"NORAD_CAT_ID":69286,"ELEMENT_SET_NO":999,"REV_AT_EPOCH":483,"BSTAR":0.0002769471,"MEAN_MOTION_DOT":0.00009884,"MEAN_MOTION_DDOT":0},{"OBJECT_NAME":"KUIPER-00603","OBJECT_ID":"2026-118W","EPOCH":"2026-07-16T06:00:02.000160","CLASSIFICATION_TYPE":"U","MEAN_MOTION":15.34035518,"ECCENTRICITY":0.00036017,"INCLINATION":51.8688,"RA_OF_ASC_NODE":272.6437,"ARG_OF_PERICENTER":285.2907,"MEAN_ANOMALY":94.4823,"EPHEMERIS_TYPE":0,"NORAD_CAT_ID":69287,"ELEMENT_SET_NO":999,"REV_AT_EPOCH":577,"BSTAR":-0.037432602,"MEAN_MOTION_DOT":-0.01142035,"MEAN_MOTION_DDOT":0}]}
